IRIDIUM 33 DEB          
1 33967U 97051CC  17345.72917522  .00004172  00000-0  83254-3 0  9994
2 33967  86.3822 189.0290 0041006 226.8244 132.9538 14.61210858465278
